CHINASAT 2A (ZX 2A)     
1 38352U 12028A   17213.81680058 -.00000304  00000-0  00000-0 0  9992
2 38352   0.0446 225.6422 0001779 118.6933 358.5828  1.00272942 18875
INTELSAT 19 (IS-19)     
1 38356U 12030A   17213.67653114 -.00000068  00000-0  00000-0 0  9993
2 38356   0.0355 301.9032 0003133 190.5140 227.5981  1.00271009 17965
ECHOSTAR 17             
1 38551U 12035A   17212.43855466 -.00000088  00000-0  00000-0 0  9994
2 38551   0.0169  75.1279 0002107  52.4652 232.4128  1.00272147 18561
METEOSAT-10 (MSG-3)     
1 38552U 12035B   17213.13940764 -.00000016  00000-0  00000-0 0  9990
2 38552   0.8448 357.9255 0002304 136.7817 225.3012  1.00275577 18386
SES-5                   
1 38652U 12036A   17213.84976535  .00000023  00000-0  00000-0 0  9992
2 38652   0.0446 254.4395 0002229 219.0539 148.0278  1.00272898 12006
TIANLIAN 1-03           
1 38730U 12040A   17213.10997591  .00000060  00000-0  00000-0 0  9999
2 38730   0.1669 263.8548 0004578 234.1400 222.0280  1.00272837 16215
INTELSAT 20 (IS-20)     
1 38740U 12043A   17212.94929263 -.00000037  00000-0  00000-0 0  9990
2 38740   0.0168 103.7097 0000724  97.9288 158.3460  1.00270466 18329
HYLAS 2                 
1 38741U 12043B   17213.05311269  .00000142  00000-0  00000-0 0  9991
2 38741   0.0192 313.7419 0001726 186.0863 220.1723  1.00273656 18346
INTELSAT 21 (IS-21)     
1 38749U 12045A   17213.29979127 -.00000296  00000-0  00000-0 0  9991
2 38749   0.0174  88.8255 0002188  35.9096 235.2736  1.00270606 18056
ASTRA 2F                
1 38778U 12051A   17213.06101755  .00000138  00000-0  00000-0 0  9993
2 38778   0.0804 245.0116 0002922 296.0870 178.8883  1.00273609  8664
GSAT-10                 
1 38779U 12051B   17212.90914164 -.00000178  00000-0  00000-0 0  9997
2 38779   0.1050 272.4287 0002227 166.2489 281.3347  1.00273523 17619
INTELSAT 23 (IS-23)     
1 38867U 12057A   17213.28594854 -.00000296  00000-0  00000-0 0  9994
2 38867   0.0518 256.3717 0001886 223.5375 240.0975  1.00272482 17505
BEIDOU G6               
1 38953U 12059A   17213.95868925 -.00000187  00000-0  00000-0 0  9998
2 38953   1.7475  80.0412 0004267 151.5373 148.2626  1.00269166 17540
LUCH 5B                 
1 38977U 12061A   17213.88439928 -.00000143  00000-0  00000-0 0  9998
2 38977   3.6328  74.2549 0002377  16.5649 161.9955  1.00271643 17670
YAMAL 300K              
1 38978U 12061B   17213.44979875  .00000060  00000-0  00000-0 0  9998
2 38978   0.0388 229.7615 0000913 351.6874  73.6740  1.00272676 17360
STAR ONE C3             
1 38991U 12062A   17213.37827042 -.00000261  00000-0  00000-0 0  9998
2 38991   0.0396  76.6645 0001897  61.0884 233.5860  1.00273431 17350
EUTELSAT 21B            
1 38992U 12062B   17213.07928785  .00000118  00000-0  00000-0 0  9992
2 38992   0.0654  26.1540 0002739 110.6135 223.2419  1.00273831 17358
ECHOSTAR 16             
1 39008U 12065A   17213.30949177 -.00000293  00000-0  00000-0 0  9993
2 39008   0.0140  77.5911 0002115  51.4406 230.9752  1.00272269 17124
CHINASAT 12 (ZX 12)     
1 39017U 12067A   17213.51670639 -.00000218  00000-0  00000-0 0  9999
2 39017   0.0277  95.2094 0002909  35.0052  93.5921  1.00271360 17009
EUTELSAT 70B            
1 39020U 12069A   17212.94390241 -.00000056  00000-0  00000-0 0  9999
2 39020   0.0596  19.6390 0003140  94.0089 246.3727  1.00272383 17007
YAMAL 402               
1 39022U 12070A   17213.89777101  .00000074  00000-0  10000-3 0  9995
2 39022   0.0173  73.8987 0002740  49.7591 205.1100  1.00273980 17095
SKYNET 5D               
1 39034U 12075A   17213.57964949  .00000088  00000-0  00000-0 0  9997
2 39034   0.0681   5.8610 0003504 133.6036  72.3103  1.00273339 16663
MEXSAT 3                
1 39035U 12075B   17213.45714841 -.00000037  00000-0  00000-0 0  9994
2 39035   0.0490 243.1173 0002045 238.4949 238.3960  1.00271931 16671
TDRS 11                 
1 39070U 13004A   17213.52671969  .00000088  00000-0  00000-0 0  9992
2 39070   5.3348 328.6065 0007952 287.9485  72.1376  1.00271753 14197
AMAZONAS 3              
1 39078U 13006A   17213.30809191 -.00000294  00000-0  00000-0 0  9998
2 39078   0.0578 250.5684 0003269 276.2065 193.2218  1.00272050 12384
AZERSPACE 1             
1 39079U 13006B   17213.01168269  .00000120  00000-0  00000-0 0  9998
2 39079   0.0408 260.3109 0001473 236.2347 223.4536  1.00276322 16303
EUTELSAT 117 WEST A     
1 39122U 13012A   17213.46269946 -.00000024  00000-0  00000-0 0  9991
2 39122   0.0123  78.0451 0002597  54.2554 227.7099  1.00271746 15963
ANIK G1                 
1 39127U 13014A   17213.43633705 -.00000085  00000-0  00000-0 0  9990
2 39127   0.0387 258.9503 0000689 232.4778 228.5660  1.00272099 15757
CHINASAT 11 (ZX 11)     
1 39157U 13020A   17213.86299311 -.00000303  00000-0  00000-0 0  9991
2 39157   0.0373 254.6123 0001638  53.3524  51.3756  1.00272762 15643
EUTELSAT 7B             
1 39163U 13022A   17213.11973369  .00000036  00000-0  00000-0 0  9992
2 39163   0.0477 338.5482 0002934  68.5501 312.9140  1.00274211 15473
SES-6                   
1 39172U 13026A   17213.88383517 -.00000272  00000-0  00000-0 0  9993
2 39172   0.0271 338.0799 0002158 143.7643 106.5075  1.00273168 15230
IRNSS-1A                
1 39199U 13034A   17213.30333870  .00000072  00000-0  00000-0 0  9992
2 39199  28.8899 114.2591 0018258 181.5495 178.4395  1.00271692 14861
ALPHASAT                
1 39215U 13038A   17212.15395318  .00000123  00000-0  00000-0 0  9999
2 39215   1.7283  28.8117 0002136  89.1569 271.2558  1.00271173 11532
INSAT-3D                
1 39216U 13038B   17212.91147829 -.00000169  00000-0  00000-0 0  9997
2 39216   0.0848 274.1903 0000350 194.4209 251.3799  1.00272205 14613
EUTELSAT 25B            
1 39233U 13044A   17213.06854470  .00000131  00000-0  00000-0 0  9995
2 39233   0.0455  13.2056 0001643 113.9318 232.8654  1.00272066 14136
GSAT-7                  
1 39234U 13044B   17212.93404266 -.00000090  00000-0  00000-0 0  9990
2 39234   0.1068 267.8092 0001515 316.5654 135.6006  1.00272443 12843
AMOS-4                  
1 39237U 13045A   17212.95900434 -.00000006  00000-0  00000-0 0  9991
2 39237   0.0164 119.2682 0001004  40.6131 200.1102  1.00273952 14455
ASTRA 2E                
1 39285U 13056A   17213.06020471  .00000138  00000-0  00000-0 0  9998
2 39285   0.0548   1.8791 0002224 126.9064 231.2222  1.00271101 13966
SIRIUS FM-6             
1 39360U 13058A   17213.46079977 -.00000028  00000-0  00000-0 0  9992
2 39360   0.0094  32.5301 0000351 213.9089 113.5456  1.00271249 13668
RADUGA-1M 3             
1 39375U 13062A   17213.90750091 -.00000050  00000-0  00000-0 0  9990
2 39375   0.0344 115.0561 0002044  26.3639 205.9530  1.00272828 13624
SES-8                   
1 39460U 13071A   17212.87599856 -.00000282  00000-0  00000-0 0  9997
2 39460   0.0548 262.3217 0003027 206.0747 251.6239  1.00271866 12015
INMARSAT 5-F1           
1 39476U 13073A   17213.91227692  .00000017  00000-0  00000-0 0  9993
2 39476   0.0188  75.9054 0000094 188.3162  77.4888  1.00272791 13094
TKSAT-1 (TUPAC KATARI)  
1 39481U 13075A   17213.52896524 -.00000206  00000-0  00000-0 0  9995
2 39481   0.0305 126.3847 0001997 344.6520 302.4885  1.00273863 13347
EXPRESS-AM5             
1 39487U 13077A   17213.88684413 -.00000291  00000-0  00000-0 0  9998
2 39487   0.0436 245.4191 0001105  87.0611  77.4705  1.00271895 13874
GSAT-14                 
1 39498U 14001A   17212.93419811 -.00000090  00000-0  00000-0 0  9998
2 39498   0.1379 269.8409 0004675 201.6901 248.5063  1.00272182 12941
THAICOM 6               
1 39500U 14002A   17213.87041167 -.00000133  00000-0  00000-0 0  9990
2 39500   0.0458 131.9210 0004141   9.3893 201.1813  1.00272585 12947
TDRS 12                 
1 39504U 14004A   17213.18623790 -.00000275  00000-0  00000-0 0  9995
2 39504   5.9293 336.0332 0000616 226.1195 134.0226  1.00273895 12949
ABS-2                   
1 39508U 14006A   17212.93159272 -.00000099  00000-0  00000-0 0  9996
2 39508   0.0327 333.7198 0002762 155.1485 231.1439  1.00270973 12813
ATHENA-FIDUS            
1 39509U 14006B   17213.03441406  .00000142  00000-0  00000-0 0  9990
2 39509   0.0129  95.4357 0001556  42.8453 221.7185  1.00272943 12575
TURKSAT 4A              
1 39522U 14007A   17213.02276510  .00000134  00000-0  00000-0 0  9998
2 39522   0.0741 269.4708 0001892 283.1112 167.4008  1.00270547 12497
EXPRESS-AT1             
1 39612U 14010A   17213.91436953  .00000067  00000-0  00000-0 0  9994
2 39612   0.0403 239.8838 0000096 248.4698 207.5184  1.00274036 12549
EXPRESS-AT2             
1 39613U 14010B   17213.88684413 -.00000293  00000-0  00000-0 0  9999
2 39613   0.0425 242.5297 0000230 272.3432 254.8948  1.00271582 12384
AMAZONAS 4A             
1 39616U 14011A   17213.30802412 -.00000294  00000-0  00000-0 0  9992
2 39616   0.0284  47.7356 0004259  54.0368 258.2635  1.00273278 12193
ASTRA 5B                
1 39617U 14011B   17213.87893267  .00000143  00000-0  00000-0 0  9995
2 39617   0.0615 301.2620 0003984 188.1631 169.1341  1.00270374 12176
IRNSS-1B                
1 39635U 14017A   17213.80149041  .00000074  00000-0  00000-0 0  9991
2 39635  29.0029 294.1837 0022928 183.3771 176.6779  1.00278382 12307
LUCH 5V                 
1 39727U 14023A   17213.27580297 -.00000278  00000-0  00000-0 0  9990
2 39727   2.6217 298.9066 0001603 205.7587 359.4051  1.00272916530016
KAZSAT-3                
1 39728U 14023B   17212.97704075  .00000048  00000-0  00000-0 0  9993
2 39728   0.0092  66.2729 0000389  32.6944 261.0246  1.00272142 11936
EUTELSAT 3B             
1 39773U 14030A   17213.84976535  .00000010  00000-0  00000-0 0  9999
2 39773   0.0829 321.4615 0003318 190.6211 107.5794  1.00276119 11571
ASIASAT 8               
1 40107U 14046A   17213.14993874 -.00000046  00000-0  00000-0 0  9997
2 40107   0.0598 268.7796 0002287 218.3730 232.8561  1.00271777 69659
